[Satellite]
VERSION=1.1
NAME=INTELSAT 34 (IS-34)
NICKNAME=INTELSAT 34 (IS-34)
TLE1=1 40874U 15039A   17185.36926676 -.00000291  00000-0  00000-0 0  9991
TLE2=2 40874   0.0221   7.9868 0000762  19.5567 332.4606  1.00268742  6893
